G21
G90
F2000
G1G90 Z0.0F2000
G1G90 Z0.0F2000
G1 X0.000Y0.000F2000
G1 X0.000Y0.000F2000
G4 P2
G1G90 Z8.0F2000
G4 P1
G1G90 Z0.0F2000
G1 X1.000Y0.000F2000
G4 P2
G1G90 Z8.0F2000
G4 P1
G1G90 Z0.0F2000
G1 X2.000Y0.000F2000
G4 P2
G1G90 Z8.0F2000
G4 P1
G1G90 Z0.0F2000
G1 X3.000Y0.000F2000
G4 P2
G1G90 Z8.0F2000
G4 P1
G1G90 Z0.0F2000
G1 X4.000Y0.000F2000
G4 P2
G1G90 Z8.0F2000
G4 P1
G1G90 Z0.0F2000
G1 X5.000Y0.000F2000
G4 P2
G1G90 Z8.0F2000
G4 P1
G1G90 Z0.0F2000
G1 X6.000Y0.000F2000
G4 P2
G1G90 Z8.0F2000
G4 P1
G1G90 Z0.0F2000
G1 X7.000Y0.000F2000
G4 P2
G1G90 Z8.0F2000
G4 P1
G1G90 Z0.0F2000
G1 X8.000Y0.000F2000
G4 P2
G1G90 Z8.0F2000
G4 P1
G1G90 Z0.0F2000
G1 X9.000Y0.000F2000
G4 P2
G1G90 Z8.0F2000
G4 P1
G1G90 Z0.0F2000
G1 X10.000Y0.000F2000
G4 P2
G1G90 Z8.0F2000
G4 P1
G1G90 Z0.0F2000
G1 X11.000Y0.000F2000
G4 P2
G1G90 Z8.0F2000
G4 P1
G1G90 Z0.0F2000
G1 X12.000Y0.000F2000
G4 P2
G1G90 Z8.0F2000
G4 P1
G1G90 Z0.0F2000
G1 X13.000Y0.000F2000
G4 P2
G1G90 Z8.0F2000
G4 P1
G1G90 Z0.0F2000
G1 X14.000Y0.000F2000
G4 P2
G1G90 Z8.0F2000
G4 P1
G1G90 Z0.0F2000
G1 X15.000Y0.000F2000
G4 P2
G1G90 Z8.0F2000
G4 P1
G1G90 Z0.0F2000
G1 X16.000Y0.000F2000
G4 P2
G1G90 Z8.0F2000
G4 P1
G1G90 Z0.0F2000
G1 X17.000Y0.000F2000
G4 P2
G1G90 Z8.0F2000
G4 P1
G1G90 Z0.0F2000
G1 X18.000Y0.000F2000
G4 P2
G1G90 Z8.0F2000
G4 P1
G1G90 Z0.0F2000
G1 X19.000Y0.000F2000
G4 P2
G1G90 Z8.0F2000
G4 P1
G1G90 Z0.0F2000
G1 X20.000Y0.000F2000
G4 P2
G1G90 Z8.0F2000
G4 P1
G1G90 Z0.0F2000
G1 X0.000Y1.000F2000
G4 P2
G1G90 Z8.0F2000
G4 P1
G1G90 Z0.0F2000
G1 X1.000Y1.000F2000
G4 P2
G1G90 Z8.0F2000
G4 P1
G1G90 Z0.0F2000
G1 X2.000Y1.000F2000
G4 P2
G1G90 Z8.0F2000
G4 P1
G1G90 Z0.0F2000
G1 X3.000Y1.000F2000
G4 P2
G1G90 Z8.0F2000
G4 P1
G1G90 Z0.0F2000
G1 X4.000Y1.000F2000
G4 P2
G1G90 Z8.0F2000
G4 P1
G1G90 Z0.0F2000
G1 X5.000Y1.000F2000
G4 P2
G1G90 Z8.0F2000
G4 P1
G1G90 Z0.0F2000
G1 X6.000Y1.000F2000
G4 P2
G1G90 Z8.0F2000
G4 P1
G1G90 Z0.0F2000
G1 X7.000Y1.000F2000
G4 P2
G1G90 Z8.0F2000
G4 P1
G1G90 Z0.0F2000
G1 X8.000Y1.000F2000
G4 P2
G1G90 Z8.0F2000
G4 P1
G1G90 Z0.0F2000
G1 X9.000Y1.000F2000
G4 P2
G1G90 Z8.0F2000
G4 P1
G1G90 Z0.0F2000
G1 X10.000Y1.000F2000
G4 P2
G1G90 Z8.0F2000
G4 P1
G1G90 Z0.0F2000
G1 X11.000Y1.000F2000
G4 P2
G1G90 Z8.0F2000
G4 P1
G1G90 Z0.0F2000
G1 X12.000Y1.000F2000
G4 P2
G1G90 Z8.0F2000
G4 P1
G1G90 Z0.0F2000
G1 X13.000Y1.000F2000
G4 P2
G1G90 Z8.0F2000
G4 P1
G1G90 Z0.0F2000
G1 X14.000Y1.000F2000
G4 P2
G1G90 Z8.0F2000
G4 P1
G1G90 Z0.0F2000
G1 X15.000Y1.000F2000
G4 P2
G1G90 Z8.0F2000
G4 P1
G1G90 Z0.0F2000
G1 X16.000Y1.000F2000
G4 P2
G1G90 Z8.0F2000
G4 P1
G1G90 Z0.0F2000
G1 X17.000Y1.000F2000
G4 P2
G1G90 Z8.0F2000
G4 P1
G1G90 Z0.0F2000
G1 X18.000Y1.000F2000
G4 P2
G1G90 Z8.0F2000
G4 P1
G1G90 Z0.0F2000
G1 X19.000Y1.000F2000
G4 P2
G1G90 Z8.0F2000
G4 P1
G1G90 Z0.0F2000
G1 X20.000Y1.000F2000
G4 P2
G1G90 Z8.0F2000
G4 P1
G1G90 Z0.0F2000
G1 X0.000Y2.000F2000
G4 P2
G1G90 Z8.0F2000
G4 P1
G1G90 Z0.0F2000
G1 X1.000Y2.000F2000
G4 P2
G1G90 Z8.0F2000
G4 P1
G1G90 Z0.0F2000
G1 X2.000Y2.000F2000
G4 P2
G1G90 Z8.0F2000
G4 P1
G1G90 Z0.0F2000
G1 X3.000Y2.000F2000
G4 P2
G1G90 Z8.0F2000
G4 P1
G1G90 Z0.0F2000
G1 X4.000Y2.000F2000
G4 P2
G1G90 Z8.0F2000
G4 P1
G1G90 Z0.0F2000
G1 X5.000Y2.000F2000
G4 P2
G1G90 Z8.0F2000
G4 P1
G1G90 Z0.0F2000
G1 X6.000Y2.000F2000
G4 P2
G1G90 Z8.0F2000
G4 P1
G1G90 Z0.0F2000
G1 X7.000Y2.000F2000
G4 P2
G1G90 Z8.0F2000
G4 P1
G1G90 Z0.0F2000
G1 X8.000Y2.000F2000
G4 P2
G1G90 Z8.0F2000
G4 P1
G1G90 Z0.0F2000
G1 X9.000Y2.000F2000
G4 P2
G1G90 Z8.0F2000
G4 P1
G1G90 Z0.0F2000
G1 X10.000Y2.000F2000
G4 P2
G1G90 Z8.0F2000
G4 P1
G1G90 Z0.0F2000
G1 X11.000Y2.000F2000
G4 P2
G1G90 Z8.0F2000
G4 P1
G1G90 Z0.0F2000
G1 X12.000Y2.000F2000
G4 P2
G1G90 Z8.0F2000
G4 P1
G1G90 Z0.0F2000
G1 X13.000Y2.000F2000
G4 P2
G1G90 Z8.0F2000
G4 P1
G1G90 Z0.0F2000
G1 X14.000Y2.000F2000
G4 P2
G1G90 Z8.0F2000
G4 P1
G1G90 Z0.0F2000
G1 X15.000Y2.000F2000
G4 P2
G1G90 Z8.0F2000
G4 P1
G1G90 Z0.0F2000
G1 X16.000Y2.000F2000
G4 P2
G1G90 Z8.0F2000
G4 P1
G1G90 Z0.0F2000
G1 X17.000Y2.000F2000
G4 P2
G1G90 Z8.0F2000
G4 P1
G1G90 Z0.0F2000
G1 X18.000Y2.000F2000
G4 P2
G1G90 Z8.0F2000
G4 P1
G1G90 Z0.0F2000
G1 X19.000Y2.000F2000
G4 P2
G1G90 Z8.0F2000
G4 P1
G1G90 Z0.0F2000
G1 X20.000Y2.000F2000
G4 P2
G1G90 Z8.0F2000
G4 P1
G1G90 Z0.0F2000
G1 X0.000Y3.000F2000
G4 P2
G1G90 Z8.0F2000
G4 P1
G1G90 Z0.0F2000
G1 X1.000Y3.000F2000
G4 P2
G1G90 Z8.0F2000
G4 P1
G1G90 Z0.0F2000
G1 X2.000Y3.000F2000
G4 P2
G1G90 Z8.0F2000
G4 P1
G1G90 Z0.0F2000
G1 X3.000Y3.000F2000
G4 P2
G1G90 Z8.0F2000
G4 P1
G1G90 Z0.0F2000
G1 X4.000Y3.000F2000
G4 P2
G1G90 Z8.0F2000
G4 P1
G1G90 Z0.0F2000
G1 X5.000Y3.000F2000
G4 P2
G1G90 Z8.0F2000
G4 P1
G1G90 Z0.0F2000
G1 X6.000Y3.000F2000
G4 P2
G1G90 Z8.0F2000
G4 P1
G1G90 Z0.0F2000
G1 X7.000Y3.000F2000
G4 P2
G1G90 Z8.0F2000
G4 P1
G1G90 Z0.0F2000
G1 X8.000Y3.000F2000
G4 P2
G1G90 Z8.0F2000
G4 P1
G1G90 Z0.0F2000
G1 X9.000Y3.000F2000
G4 P2
G1G90 Z8.0F2000
G4 P1
G1G90 Z0.0F2000
G1 X10.000Y3.000F2000
G4 P2
G1G90 Z8.0F2000
G4 P1
G1G90 Z0.0F2000
G1 X11.000Y3.000F2000
G4 P2
G1G90 Z8.0F2000
G4 P1
G1G90 Z0.0F2000
G1 X12.000Y3.000F2000
G4 P2
G1G90 Z8.0F2000
G4 P1
G1G90 Z0.0F2000
G1 X13.000Y3.000F2000
G4 P2
G1G90 Z8.0F2000
G4 P1
G1G90 Z0.0F2000
G1 X14.000Y3.000F2000
G4 P2
G1G90 Z8.0F2000
G4 P1
G1G90 Z0.0F2000
G1 X15.000Y3.000F2000
G4 P2
G1G90 Z8.0F2000
G4 P1
G1G90 Z0.0F2000
G1 X16.000Y3.000F2000
G4 P2
G1G90 Z8.0F2000
G4 P1
G1G90 Z0.0F2000
G1 X17.000Y3.000F2000
G4 P2
G1G90 Z8.0F2000
G4 P1
G1G90 Z0.0F2000
G1 X18.000Y3.000F2000
G4 P2
G1G90 Z8.0F2000
G4 P1
G1G90 Z0.0F2000
G1 X19.000Y3.000F2000
G4 P2
G1G90 Z8.0F2000
G4 P1
G1G90 Z0.0F2000
G1 X20.000Y3.000F2000
G4 P2
G1G90 Z8.0F2000
G4 P1
G1G90 Z0.0F2000
G1 X0.000Y4.000F2000
G4 P2
G1G90 Z8.0F2000
G4 P1
G1G90 Z0.0F2000
G1 X1.000Y4.000F2000
G4 P2
G1G90 Z8.0F2000
G4 P1
G1G90 Z0.0F2000
G1 X2.000Y4.000F2000
G4 P2
G1G90 Z8.0F2000
G4 P1
G1G90 Z0.0F2000
G1 X3.000Y4.000F2000
G4 P2
G1G90 Z8.0F2000
G4 P1
G1G90 Z0.0F2000
G1 X4.000Y4.000F2000
G4 P2
G1G90 Z8.0F2000
G4 P1
G1G90 Z0.0F2000
G1 X5.000Y4.000F2000
G4 P2
G1G90 Z8.0F2000
G4 P1
G1G90 Z0.0F2000
G1 X6.000Y4.000F2000
G4 P2
G1G90 Z8.0F2000
G4 P1
G1G90 Z0.0F2000
G1 X7.000Y4.000F2000
G4 P2
G1G90 Z8.0F2000
G4 P1
G1G90 Z0.0F2000
G1 X8.000Y4.000F2000
G4 P2
G1G90 Z8.0F2000
G4 P1
G1G90 Z0.0F2000
G1 X9.000Y4.000F2000
G4 P2
G1G90 Z8.0F2000
G4 P1
G1G90 Z0.0F2000
G1 X10.000Y4.000F2000
G4 P2
G1G90 Z8.0F2000
G4 P1
G1G90 Z0.0F2000
G1 X11.000Y4.000F2000
G4 P2
G1G90 Z8.0F2000
G4 P1
G1G90 Z0.0F2000
G1 X12.000Y4.000F2000
G4 P2
G1G90 Z8.0F2000
G4 P1
G1G90 Z0.0F2000
G1 X13.000Y4.000F2000
G4 P2
G1G90 Z8.0F2000
G4 P1
G1G90 Z0.0F2000
G1 X14.000Y4.000F2000
G4 P2
G1G90 Z8.0F2000
G4 P1
G1G90 Z0.0F2000
G1 X15.000Y4.000F2000
G4 P2
G1G90 Z8.0F2000
G4 P1
G1G90 Z0.0F2000
G1 X16.000Y4.000F2000
G4 P2
G1G90 Z8.0F2000
G4 P1
G1G90 Z0.0F2000
G1 X17.000Y4.000F2000
G4 P2
G1G90 Z8.0F2000
G4 P1
G1G90 Z0.0F2000
G1 X18.000Y4.000F2000
G4 P2
G1G90 Z8.0F2000
G4 P1
G1G90 Z0.0F2000
G1 X19.000Y4.000F2000
G4 P2
G1G90 Z8.0F2000
G4 P1
G1G90 Z0.0F2000
G1 X20.000Y4.000F2000
G4 P2
G1G90 Z8.0F2000
G4 P1
G1G90 Z0.0F2000
G1 X0.000Y5.000F2000
G4 P2
G1G90 Z8.0F2000
G4 P1
G1G90 Z0.0F2000
G1 X1.000Y5.000F2000
G4 P2
G1G90 Z8.0F2000
G4 P1
G1G90 Z0.0F2000
G1 X2.000Y5.000F2000
G4 P2
G1G90 Z8.0F2000
G4 P1
G1G90 Z0.0F2000
G1 X3.000Y5.000F2000
G4 P2
G1G90 Z8.0F2000
G4 P1
G1G90 Z0.0F2000
G1 X4.000Y5.000F2000
G4 P2
G1G90 Z8.0F2000
G4 P1
G1G90 Z0.0F2000
G1 X5.000Y5.000F2000
G4 P2
G1G90 Z8.0F2000
G4 P1
G1G90 Z0.0F2000
G1 X6.000Y5.000F2000
G4 P2
G1G90 Z8.0F2000
G4 P1
G1G90 Z0.0F2000
G1 X7.000Y5.000F2000
G4 P2
G1G90 Z8.0F2000
G4 P1
G1G90 Z0.0F2000
G1 X8.000Y5.000F2000
G4 P2
G1G90 Z8.0F2000
G4 P1
G1G90 Z0.0F2000
G1 X9.000Y5.000F2000
G4 P2
G1G90 Z8.0F2000
G4 P1
G1G90 Z0.0F2000
G1 X10.000Y5.000F2000
G4 P2
G1G90 Z8.0F2000
G4 P1
G1G90 Z0.0F2000
G1 X11.000Y5.000F2000
G4 P2
G1G90 Z8.0F2000
G4 P1
G1G90 Z0.0F2000
G1 X12.000Y5.000F2000
G4 P2
G1G90 Z8.0F2000
G4 P1
G1G90 Z0.0F2000
G1 X13.000Y5.000F2000
G4 P2
G1G90 Z8.0F2000
G4 P1
G1G90 Z0.0F2000
G1 X14.000Y5.000F2000
G4 P2
G1G90 Z8.0F2000
G4 P1
G1G90 Z0.0F2000
G1 X15.000Y5.000F2000
G4 P2
G1G90 Z8.0F2000
G4 P1
G1G90 Z0.0F2000
G1 X16.000Y5.000F2000
G4 P2
G1G90 Z8.0F2000
G4 P1
G1G90 Z0.0F2000
G1 X17.000Y5.000F2000
G4 P2
G1G90 Z8.0F2000
G4 P1
G1G90 Z0.0F2000
G1 X18.000Y5.000F2000
G4 P2
G1G90 Z8.0F2000
G4 P1
G1G90 Z0.0F2000
G1 X19.000Y5.000F2000
G4 P2
G1G90 Z8.0F2000
G4 P1
G1G90 Z0.0F2000
G1 X20.000Y5.000F2000
G4 P2
G1G90 Z8.0F2000
G4 P1
G1G90 Z0.0F2000
G1 X0.000Y6.000F2000
G4 P2
G1G90 Z8.0F2000
G4 P1
G1G90 Z0.0F2000
G1 X1.000Y6.000F2000
G4 P2
G1G90 Z8.0F2000
G4 P1
G1G90 Z0.0F2000
G1 X2.000Y6.000F2000
G4 P2
G1G90 Z8.0F2000
G4 P1
G1G90 Z0.0F2000
G1 X3.000Y6.000F2000
G4 P2
G1G90 Z8.0F2000
G4 P1
G1G90 Z0.0F2000
G1 X4.000Y6.000F2000
G4 P2
G1G90 Z8.0F2000
G4 P1
G1G90 Z0.0F2000
G1 X5.000Y6.000F2000
G4 P2
G1G90 Z8.0F2000
G4 P1
G1G90 Z0.0F2000
G1 X6.000Y6.000F2000
G4 P2
G1G90 Z8.0F2000
G4 P1
G1G90 Z0.0F2000
G1 X7.000Y6.000F2000
G4 P2
G1G90 Z8.0F2000
G4 P1
G1G90 Z0.0F2000
G1 X8.000Y6.000F2000
G4 P2
G1G90 Z8.0F2000
G4 P1
G1G90 Z0.0F2000
G1 X9.000Y6.000F2000
G4 P2
G1G90 Z8.0F2000
G4 P1
G1G90 Z0.0F2000
G1 X10.000Y6.000F2000
G4 P2
G1G90 Z8.0F2000
G4 P1
G1G90 Z0.0F2000
G1 X11.000Y6.000F2000
G4 P2
G1G90 Z8.0F2000
G4 P1
G1G90 Z0.0F2000
G1 X12.000Y6.000F2000
G4 P2
G1G90 Z8.0F2000
G4 P1
G1G90 Z0.0F2000
G1 X13.000Y6.000F2000
G4 P2
G1G90 Z8.0F2000
G4 P1
G1G90 Z0.0F2000
G1 X14.000Y6.000F2000
G4 P2
G1G90 Z8.0F2000
G4 P1
G1G90 Z0.0F2000
G1 X15.000Y6.000F2000
G4 P2
G1G90 Z8.0F2000
G4 P1
G1G90 Z0.0F2000
G1 X16.000Y6.000F2000
G4 P2
G1G90 Z8.0F2000
G4 P1
G1G90 Z0.0F2000
G1 X17.000Y6.000F2000
G4 P2
G1G90 Z8.0F2000
G4 P1
G1G90 Z0.0F2000
G1 X18.000Y6.000F2000
G4 P2
G1G90 Z8.0F2000
G4 P1
G1G90 Z0.0F2000
G1 X19.000Y6.000F2000
G4 P2
G1G90 Z8.0F2000
G4 P1
G1G90 Z0.0F2000
G1 X20.000Y6.000F2000
G4 P2
G1G90 Z8.0F2000
G4 P1
G1G90 Z0.0F2000
G1 X0.000Y7.000F2000
G4 P2
G1G90 Z8.0F2000
G4 P1
G1G90 Z0.0F2000
G1 X1.000Y7.000F2000
G4 P2
G1G90 Z8.0F2000
G4 P1
G1G90 Z0.0F2000
G1 X2.000Y7.000F2000
G4 P2
G1G90 Z8.0F2000
G4 P1
G1G90 Z0.0F2000
G1 X3.000Y7.000F2000
G4 P2
G1G90 Z8.0F2000
G4 P1
G1G90 Z0.0F2000
G1 X4.000Y7.000F2000
G4 P2
G1G90 Z8.0F2000
G4 P1
G1G90 Z0.0F2000
G1 X5.000Y7.000F2000
G4 P2
G1G90 Z8.0F2000
G4 P1
G1G90 Z0.0F2000
G1 X6.000Y7.000F2000
G4 P2
G1G90 Z8.0F2000
G4 P1
G1G90 Z0.0F2000
G1 X7.000Y7.000F2000
G4 P2
G1G90 Z8.0F2000
G4 P1
G1G90 Z0.0F2000
G1 X8.000Y7.000F2000
G4 P2
G1G90 Z8.0F2000
G4 P1
G1G90 Z0.0F2000
G1 X9.000Y7.000F2000
G4 P2
G1G90 Z8.0F2000
G4 P1
G1G90 Z0.0F2000
G1 X10.000Y7.000F2000
G4 P2
G1G90 Z8.0F2000
G4 P1
G1G90 Z0.0F2000
G1 X11.000Y7.000F2000
G4 P2
G1G90 Z8.0F2000
G4 P1
G1G90 Z0.0F2000
G1 X12.000Y7.000F2000
G4 P2
G1G90 Z8.0F2000
G4 P1
G1G90 Z0.0F2000
G1 X13.000Y7.000F2000
G4 P2
G1G90 Z8.0F2000
G4 P1
G1G90 Z0.0F2000
G1 X14.000Y7.000F2000
G4 P2
G1G90 Z8.0F2000
G4 P1
G1G90 Z0.0F2000
G1 X15.000Y7.000F2000
G4 P2
G1G90 Z8.0F2000
G4 P1
G1G90 Z0.0F2000
G1 X16.000Y7.000F2000
G4 P2
G1G90 Z8.0F2000
G4 P1
G1G90 Z0.0F2000
G1 X17.000Y7.000F2000
G4 P2
G1G90 Z8.0F2000
G4 P1
G1G90 Z0.0F2000
G1 X18.000Y7.000F2000
G4 P2
G1G90 Z8.0F2000
G4 P1
G1G90 Z0.0F2000
G1 X19.000Y7.000F2000
G4 P2
G1G90 Z8.0F2000
G4 P1
G1G90 Z0.0F2000
G1 X20.000Y7.000F2000
G4 P2
G1G90 Z8.0F2000
G4 P1
G1G90 Z0.0F2000
G1 X0.000Y8.000F2000
G4 P2
G1G90 Z8.0F2000
G4 P1
G1G90 Z0.0F2000
G1 X1.000Y8.000F2000
G4 P2
G1G90 Z8.0F2000
G4 P1
G1G90 Z0.0F2000
G1 X2.000Y8.000F2000
G4 P2
G1G90 Z8.0F2000
G4 P1
G1G90 Z0.0F2000
G1 X3.000Y8.000F2000
G4 P2
G1G90 Z8.0F2000
G4 P1
G1G90 Z0.0F2000
G1 X4.000Y8.000F2000
G4 P2
G1G90 Z8.0F2000
G4 P1
G1G90 Z0.0F2000
G1 X5.000Y8.000F2000
G4 P2
G1G90 Z8.0F2000
G4 P1
G1G90 Z0.0F2000
G1 X6.000Y8.000F2000
G4 P2
G1G90 Z8.0F2000
G4 P1
G1G90 Z0.0F2000
G1 X7.000Y8.000F2000
G4 P2
G1G90 Z8.0F2000
G4 P1
G1G90 Z0.0F2000
G1 X8.000Y8.000F2000
G4 P2
G1G90 Z8.0F2000
G4 P1
G1G90 Z0.0F2000
G1 X9.000Y8.000F2000
G4 P2
G1G90 Z8.0F2000
G4 P1
G1G90 Z0.0F2000
G1 X10.000Y8.000F2000
G4 P2
G1G90 Z8.0F2000
G4 P1
G1G90 Z0.0F2000
G1 X11.000Y8.000F2000
G4 P2
G1G90 Z8.0F2000
G4 P1
G1G90 Z0.0F2000
G1 X12.000Y8.000F2000
G4 P2
G1G90 Z8.0F2000
G4 P1
G1G90 Z0.0F2000
G1 X13.000Y8.000F2000
G4 P2
G1G90 Z8.0F2000
G4 P1
G1G90 Z0.0F2000
G1 X14.000Y8.000F2000
G4 P2
G1G90 Z8.0F2000
G4 P1
G1G90 Z0.0F2000
G1 X15.000Y8.000F2000
G4 P2
G1G90 Z8.0F2000
G4 P1
G1G90 Z0.0F2000
G1 X16.000Y8.000F2000
G4 P2
G1G90 Z8.0F2000
G4 P1
G1G90 Z0.0F2000
G1 X17.000Y8.000F2000
G4 P2
G1G90 Z8.0F2000
G4 P1
G1G90 Z0.0F2000
G1 X18.000Y8.000F2000
G4 P2
G1G90 Z8.0F2000
G4 P1
G1G90 Z0.0F2000
G1 X19.000Y8.000F2000
G4 P2
G1G90 Z8.0F2000
G4 P1
G1G90 Z0.0F2000
G1 X20.000Y8.000F2000
G4 P2
G1G90 Z8.0F2000
G4 P1
G1G90 Z0.0F2000
G1 X0.000Y9.000F2000
G4 P2
G1G90 Z8.0F2000
G4 P1
G1G90 Z0.0F2000
G1 X1.000Y9.000F2000
G4 P2
G1G90 Z8.0F2000
G4 P1
G1G90 Z0.0F2000
G1 X2.000Y9.000F2000
G4 P2
G1G90 Z8.0F2000
G4 P1
G1G90 Z0.0F2000
G1 X3.000Y9.000F2000
G4 P2
G1G90 Z8.0F2000
G4 P1
G1G90 Z0.0F2000
G1 X4.000Y9.000F2000
G4 P2
G1G90 Z8.0F2000
G4 P1
G1G90 Z0.0F2000
G1 X5.000Y9.000F2000
G4 P2
G1G90 Z8.0F2000
G4 P1
G1G90 Z0.0F2000
G1 X6.000Y9.000F2000
G4 P2
G1G90 Z8.0F2000
G4 P1
G1G90 Z0.0F2000
G1 X7.000Y9.000F2000
G4 P2
G1G90 Z8.0F2000
G4 P1
G1G90 Z0.0F2000
G1 X8.000Y9.000F2000
G4 P2
G1G90 Z8.0F2000
G4 P1
G1G90 Z0.0F2000
G1 X9.000Y9.000F2000
G4 P2
G1G90 Z8.0F2000
G4 P1
G1G90 Z0.0F2000
G1 X10.000Y9.000F2000
G4 P2
G1G90 Z8.0F2000
G4 P1
G1G90 Z0.0F2000
G1 X11.000Y9.000F2000
G4 P2
G1G90 Z8.0F2000
G4 P1
G1G90 Z0.0F2000
G1 X12.000Y9.000F2000
G4 P2
G1G90 Z8.0F2000
G4 P1
G1G90 Z0.0F2000
G1 X13.000Y9.000F2000
G4 P2
G1G90 Z8.0F2000
G4 P1
G1G90 Z0.0F2000
G1 X14.000Y9.000F2000
G4 P2
G1G90 Z8.0F2000
G4 P1
G1G90 Z0.0F2000
G1 X15.000Y9.000F2000
G4 P2
G1G90 Z8.0F2000
G4 P1
G1G90 Z0.0F2000
G1 X16.000Y9.000F2000
G4 P2
G1G90 Z8.0F2000
G4 P1
G1G90 Z0.0F2000
G1 X17.000Y9.000F2000
G4 P2
G1G90 Z8.0F2000
G4 P1
G1G90 Z0.0F2000
G1 X18.000Y9.000F2000
G4 P2
G1G90 Z8.0F2000
G4 P1
G1G90 Z0.0F2000
G1 X19.000Y9.000F2000
G4 P2
G1G90 Z8.0F2000
G4 P1
G1G90 Z0.0F2000
G1 X20.000Y9.000F2000
G4 P2
G1G90 Z8.0F2000
G4 P1
G1G90 Z0.0F2000
G1 X0.000Y10.000F2000
G4 P2
G1G90 Z8.0F2000
G4 P1
G1G90 Z0.0F2000
G1 X1.000Y10.000F2000
G4 P2
G1G90 Z8.0F2000
G4 P1
G1G90 Z0.0F2000
G1 X2.000Y10.000F2000
G4 P2
G1G90 Z8.0F2000
G4 P1
G1G90 Z0.0F2000
G1 X3.000Y10.000F2000
G4 P2
G1G90 Z8.0F2000
G4 P1
G1G90 Z0.0F2000
G1 X4.000Y10.000F2000
G4 P2
G1G90 Z8.0F2000
G4 P1
G1G90 Z0.0F2000
G1 X5.000Y10.000F2000
G4 P2
G1G90 Z8.0F2000
G4 P1
G1G90 Z0.0F2000
G1 X6.000Y10.000F2000
G4 P2
G1G90 Z8.0F2000
G4 P1
G1G90 Z0.0F2000
G1 X7.000Y10.000F2000
G4 P2
G1G90 Z8.0F2000
G4 P1
G1G90 Z0.0F2000
G1 X8.000Y10.000F2000
G4 P2
G1G90 Z8.0F2000
G4 P1
G1G90 Z0.0F2000
G1 X9.000Y10.000F2000
G4 P2
G1G90 Z8.0F2000
G4 P1
G1G90 Z0.0F2000
G1 X10.000Y10.000F2000
G4 P2
G1G90 Z8.0F2000
G4 P1
G1G90 Z0.0F2000
G1 X11.000Y10.000F2000
G4 P2
G1G90 Z8.0F2000
G4 P1
G1G90 Z0.0F2000
G1 X12.000Y10.000F2000
G4 P2
G1G90 Z8.0F2000
G4 P1
G1G90 Z0.0F2000
G1 X13.000Y10.000F2000
G4 P2
G1G90 Z8.0F2000
G4 P1
G1G90 Z0.0F2000
G1 X14.000Y10.000F2000
G4 P2
G1G90 Z8.0F2000
G4 P1
G1G90 Z0.0F2000
G1 X15.000Y10.000F2000
G4 P2
G1G90 Z8.0F2000
G4 P1
G1G90 Z0.0F2000
G1 X16.000Y10.000F2000
G4 P2
G1G90 Z8.0F2000
G4 P1
G1G90 Z0.0F2000
G1 X17.000Y10.000F2000
G4 P2
G1G90 Z8.0F2000
G4 P1
G1G90 Z0.0F2000
G1 X18.000Y10.000F2000
G4 P2
G1G90 Z8.0F2000
G4 P1
G1G90 Z0.0F2000
G1 X19.000Y10.000F2000
G4 P2
G1G90 Z8.0F2000
G4 P1
G1G90 Z0.0F2000
G1 X20.000Y10.000F2000
G4 P2
G1G90 Z8.0F2000
G4 P1
G1G90 Z0.0F2000
G1 X0.000Y11.000F2000
G4 P2
G1G90 Z8.0F2000
G4 P1
G1G90 Z0.0F2000
G1 X1.000Y11.000F2000
G4 P2
G1G90 Z8.0F2000
G4 P1
G1G90 Z0.0F2000
G1 X2.000Y11.000F2000
G4 P2
G1G90 Z8.0F2000
G4 P1
G1G90 Z0.0F2000
G1 X3.000Y11.000F2000
G4 P2
G1G90 Z8.0F2000
G4 P1
G1G90 Z0.0F2000
G1 X4.000Y11.000F2000
G4 P2
G1G90 Z8.0F2000
G4 P1
G1G90 Z0.0F2000
G1 X5.000Y11.000F2000
G4 P2
G1G90 Z8.0F2000
G4 P1
G1G90 Z0.0F2000
G1 X6.000Y11.000F2000
G4 P2
G1G90 Z8.0F2000
G4 P1
G1G90 Z0.0F2000
G1 X7.000Y11.000F2000
G4 P2
G1G90 Z8.0F2000
G4 P1
G1G90 Z0.0F2000
G1 X8.000Y11.000F2000
G4 P2
G1G90 Z8.0F2000
G4 P1
G1G90 Z0.0F2000
G1 X9.000Y11.000F2000
G4 P2
G1G90 Z8.0F2000
G4 P1
G1G90 Z0.0F2000
G1 X10.000Y11.000F2000
G4 P2
G1G90 Z8.0F2000
G4 P1
G1G90 Z0.0F2000
G1 X11.000Y11.000F2000
G4 P2
G1G90 Z8.0F2000
G4 P1
G1G90 Z0.0F2000
G1 X12.000Y11.000F2000
G4 P2
G1G90 Z8.0F2000
G4 P1
G1G90 Z0.0F2000
G1 X13.000Y11.000F2000
G4 P2
G1G90 Z8.0F2000
G4 P1
G1G90 Z0.0F2000
G1 X14.000Y11.000F2000
G4 P2
G1G90 Z8.0F2000
G4 P1
G1G90 Z0.0F2000
G1 X15.000Y11.000F2000
G4 P2
G1G90 Z8.0F2000
G4 P1
G1G90 Z0.0F2000
G1 X16.000Y11.000F2000
G4 P2
G1G90 Z8.0F2000
G4 P1
G1G90 Z0.0F2000
G1 X17.000Y11.000F2000
G4 P2
G1G90 Z8.0F2000
G4 P1
G1G90 Z0.0F2000
G1 X18.000Y11.000F2000
G4 P2
G1G90 Z8.0F2000
G4 P1
G1G90 Z0.0F2000
G1 X19.000Y11.000F2000
G4 P2
G1G90 Z8.0F2000
G4 P1
G1G90 Z0.0F2000
G1 X20.000Y11.000F2000
G4 P2
G1G90 Z8.0F2000
G4 P1
G1G90 Z0.0F2000
G1 X0.000Y12.000F2000
G4 P2
G1G90 Z8.0F2000
G4 P1
G1G90 Z0.0F2000
G1 X1.000Y12.000F2000
G4 P2
G1G90 Z8.0F2000
G4 P1
G1G90 Z0.0F2000
G1 X2.000Y12.000F2000
G4 P2
G1G90 Z8.0F2000
G4 P1
G1G90 Z0.0F2000
G1 X3.000Y12.000F2000
G4 P2
G1G90 Z8.0F2000
G4 P1
G1G90 Z0.0F2000
G1 X4.000Y12.000F2000
G4 P2
G1G90 Z8.0F2000
G4 P1
G1G90 Z0.0F2000
G1 X5.000Y12.000F2000
G4 P2
G1G90 Z8.0F2000
G4 P1
G1G90 Z0.0F2000
G1 X6.000Y12.000F2000
G4 P2
G1G90 Z8.0F2000
G4 P1
G1G90 Z0.0F2000
G1 X7.000Y12.000F2000
G4 P2
G1G90 Z8.0F2000
G4 P1
G1G90 Z0.0F2000
G1 X8.000Y12.000F2000
G4 P2
G1G90 Z8.0F2000
G4 P1
G1G90 Z0.0F2000
G1 X9.000Y12.000F2000
G4 P2
G1G90 Z8.0F2000
G4 P1
G1G90 Z0.0F2000
G1 X10.000Y12.000F2000
G4 P2
G1G90 Z8.0F2000
G4 P1
G1G90 Z0.0F2000
G1 X11.000Y12.000F2000
G4 P2
G1G90 Z8.0F2000
G4 P1
G1G90 Z0.0F2000
G1 X12.000Y12.000F2000
G4 P2
G1G90 Z8.0F2000
G4 P1
G1G90 Z0.0F2000
G1 X13.000Y12.000F2000
G4 P2
G1G90 Z8.0F2000
G4 P1
G1G90 Z0.0F2000
G1 X14.000Y12.000F2000
G4 P2
G1G90 Z8.0F2000
G4 P1
G1G90 Z0.0F2000
G1 X15.000Y12.000F2000
G4 P2
G1G90 Z8.0F2000
G4 P1
G1G90 Z0.0F2000
G1 X16.000Y12.000F2000
G4 P2
G1G90 Z8.0F2000
G4 P1
G1G90 Z0.0F2000
G1 X17.000Y12.000F2000
G4 P2
G1G90 Z8.0F2000
G4 P1
G1G90 Z0.0F2000
G1 X18.000Y12.000F2000
G4 P2
G1G90 Z8.0F2000
G4 P1
G1G90 Z0.0F2000
G1 X19.000Y12.000F2000
G4 P2
G1G90 Z8.0F2000
G4 P1
G1G90 Z0.0F2000
G1 X20.000Y12.000F2000
G4 P2
G1G90 Z8.0F2000
G4 P1
G1G90 Z0.0F2000
G1 X0.000Y13.000F2000
G4 P2
G1G90 Z8.0F2000
G4 P1
G1G90 Z0.0F2000
G1 X1.000Y13.000F2000
G4 P2
G1G90 Z8.0F2000
G4 P1
G1G90 Z0.0F2000
G1 X2.000Y13.000F2000
G4 P2
G1G90 Z8.0F2000
G4 P1
G1G90 Z0.0F2000
G1 X3.000Y13.000F2000
G4 P2
G1G90 Z8.0F2000
G4 P1
G1G90 Z0.0F2000
G1 X4.000Y13.000F2000
G4 P2
G1G90 Z8.0F2000
G4 P1
G1G90 Z0.0F2000
G1 X5.000Y13.000F2000
G4 P2
G1G90 Z8.0F2000
G4 P1
G1G90 Z0.0F2000
G1 X6.000Y13.000F2000
G4 P2
G1G90 Z8.0F2000
G4 P1
G1G90 Z0.0F2000
G1 X7.000Y13.000F2000
G4 P2
G1G90 Z8.0F2000
G4 P1
G1G90 Z0.0F2000
G1 X8.000Y13.000F2000
G4 P2
G1G90 Z8.0F2000
G4 P1
G1G90 Z0.0F2000
G1 X9.000Y13.000F2000
G4 P2
G1G90 Z8.0F2000
G4 P1
G1G90 Z0.0F2000
G1 X10.000Y13.000F2000
G4 P2
G1G90 Z8.0F2000
G4 P1
G1G90 Z0.0F2000
G1 X11.000Y13.000F2000
G4 P2
G1G90 Z8.0F2000
G4 P1
G1G90 Z0.0F2000
G1 X12.000Y13.000F2000
G4 P2
G1G90 Z8.0F2000
G4 P1
G1G90 Z0.0F2000
G1 X13.000Y13.000F2000
G4 P2
G1G90 Z8.0F2000
G4 P1
G1G90 Z0.0F2000
G1 X14.000Y13.000F2000
G4 P2
G1G90 Z8.0F2000
G4 P1
G1G90 Z0.0F2000
G1 X15.000Y13.000F2000
G4 P2
G1G90 Z8.0F2000
G4 P1
G1G90 Z0.0F2000
G1 X16.000Y13.000F2000
G4 P2
G1G90 Z8.0F2000
G4 P1
G1G90 Z0.0F2000
G1 X17.000Y13.000F2000
G4 P2
G1G90 Z8.0F2000
G4 P1
G1G90 Z0.0F2000
G1 X18.000Y13.000F2000
G4 P2
G1G90 Z8.0F2000
G4 P1
G1G90 Z0.0F2000
G1 X19.000Y13.000F2000
G4 P2
G1G90 Z8.0F2000
G4 P1
G1G90 Z0.0F2000
G1 X20.000Y13.000F2000
G4 P2
G1G90 Z8.0F2000
G4 P1
G1G90 Z0.0F2000
G1 X0.000Y14.000F2000
G4 P2
G1G90 Z8.0F2000
G4 P1
G1G90 Z0.0F2000
G1 X1.000Y14.000F2000
G4 P2
G1G90 Z8.0F2000
G4 P1
G1G90 Z0.0F2000
G1 X2.000Y14.000F2000
G4 P2
G1G90 Z8.0F2000
G4 P1
G1G90 Z0.0F2000
G1 X3.000Y14.000F2000
G4 P2
G1G90 Z8.0F2000
G4 P1
G1G90 Z0.0F2000
G1 X4.000Y14.000F2000
G4 P2
G1G90 Z8.0F2000
G4 P1
G1G90 Z0.0F2000
G1 X5.000Y14.000F2000
G4 P2
G1G90 Z8.0F2000
G4 P1
G1G90 Z0.0F2000
G1 X6.000Y14.000F2000
G4 P2
G1G90 Z8.0F2000
G4 P1
G1G90 Z0.0F2000
G1 X7.000Y14.000F2000
G4 P2
G1G90 Z8.0F2000
G4 P1
G1G90 Z0.0F2000
G1 X8.000Y14.000F2000
G4 P2
G1G90 Z8.0F2000
G4 P1
G1G90 Z0.0F2000
G1 X9.000Y14.000F2000
G4 P2
G1G90 Z8.0F2000
G4 P1
G1G90 Z0.0F2000
G1 X10.000Y14.000F2000
G4 P2
G1G90 Z8.0F2000
G4 P1
G1G90 Z0.0F2000
G1 X11.000Y14.000F2000
G4 P2
G1G90 Z8.0F2000
G4 P1
G1G90 Z0.0F2000
G1 X12.000Y14.000F2000
G4 P2
G1G90 Z8.0F2000
G4 P1
G1G90 Z0.0F2000
G1 X13.000Y14.000F2000
G4 P2
G1G90 Z8.0F2000
G4 P1
G1G90 Z0.0F2000
G1 X14.000Y14.000F2000
G4 P2
G1G90 Z8.0F2000
G4 P1
G1G90 Z0.0F2000
G1 X15.000Y14.000F2000
G4 P2
G1G90 Z8.0F2000
G4 P1
G1G90 Z0.0F2000
G1 X16.000Y14.000F2000
G4 P2
G1G90 Z8.0F2000
G4 P1
G1G90 Z0.0F2000
G1 X17.000Y14.000F2000
G4 P2
G1G90 Z8.0F2000
G4 P1
G1G90 Z0.0F2000
G1 X18.000Y14.000F2000
G4 P2
G1G90 Z8.0F2000
G4 P1
G1G90 Z0.0F2000
G1 X19.000Y14.000F2000
G4 P2
G1G90 Z8.0F2000
G4 P1
G1G90 Z0.0F2000
G1 X20.000Y14.000F2000
G4 P2
G1G90 Z8.0F2000
G4 P1
G1G90 Z0.0F2000
G1 X0.000Y15.000F2000
G4 P2
G1G90 Z8.0F2000
G4 P1
G1G90 Z0.0F2000
G1 X1.000Y15.000F2000
G4 P2
G1G90 Z8.0F2000
G4 P1
G1G90 Z0.0F2000
G1 X2.000Y15.000F2000
G4 P2
G1G90 Z8.0F2000
G4 P1
G1G90 Z0.0F2000
G1 X3.000Y15.000F2000
G4 P2
G1G90 Z8.0F2000
G4 P1
G1G90 Z0.0F2000
G1 X4.000Y15.000F2000
G4 P2
G1G90 Z8.0F2000
G4 P1
G1G90 Z0.0F2000
G1 X5.000Y15.000F2000
G4 P2
G1G90 Z8.0F2000
G4 P1
G1G90 Z0.0F2000
G1 X6.000Y15.000F2000
G4 P2
G1G90 Z8.0F2000
G4 P1
G1G90 Z0.0F2000
G1 X7.000Y15.000F2000
G4 P2
G1G90 Z8.0F2000
G4 P1
G1G90 Z0.0F2000
G1 X8.000Y15.000F2000
G4 P2
G1G90 Z8.0F2000
G4 P1
G1G90 Z0.0F2000
G1 X9.000Y15.000F2000
G4 P2
G1G90 Z8.0F2000
G4 P1
G1G90 Z0.0F2000
G1 X10.000Y15.000F2000
G4 P2
G1G90 Z8.0F2000
G4 P1
G1G90 Z0.0F2000
G1 X11.000Y15.000F2000
G4 P2
G1G90 Z8.0F2000
G4 P1
G1G90 Z0.0F2000
G1 X12.000Y15.000F2000
G4 P2
G1G90 Z8.0F2000
G4 P1
G1G90 Z0.0F2000
G1 X13.000Y15.000F2000
G4 P2
G1G90 Z8.0F2000
G4 P1
G1G90 Z0.0F2000
G1 X14.000Y15.000F2000
G4 P2
G1G90 Z8.0F2000
G4 P1
G1G90 Z0.0F2000
G1 X15.000Y15.000F2000
G4 P2
G1G90 Z8.0F2000
G4 P1
G1G90 Z0.0F2000
G1 X16.000Y15.000F2000
G4 P2
G1G90 Z8.0F2000
G4 P1
G1G90 Z0.0F2000
G1 X17.000Y15.000F2000
G4 P2
G1G90 Z8.0F2000
G4 P1
G1G90 Z0.0F2000
G1 X18.000Y15.000F2000
G4 P2
G1G90 Z8.0F2000
G4 P1
G1G90 Z0.0F2000
G1 X19.000Y15.000F2000
G4 P2
G1G90 Z8.0F2000
G4 P1
G1G90 Z0.0F2000
G1 X20.000Y15.000F2000
G4 P2
G1G90 Z8.0F2000
G4 P1
G1G90 Z0.0F2000
G1 X0.000Y16.000F2000
G4 P2
G1G90 Z8.0F2000
G4 P1
G1G90 Z0.0F2000
G1 X1.000Y16.000F2000
G4 P2
G1G90 Z8.0F2000
G4 P1
G1G90 Z0.0F2000
G1 X2.000Y16.000F2000
G4 P2
G1G90 Z8.0F2000
G4 P1
G1G90 Z0.0F2000
G1 X3.000Y16.000F2000
G4 P2
G1G90 Z8.0F2000
G4 P1
G1G90 Z0.0F2000
G1 X4.000Y16.000F2000
G4 P2
G1G90 Z8.0F2000
G4 P1
G1G90 Z0.0F2000
G1 X5.000Y16.000F2000
G4 P2
G1G90 Z8.0F2000
G4 P1
G1G90 Z0.0F2000
G1 X6.000Y16.000F2000
G4 P2
G1G90 Z8.0F2000
G4 P1
G1G90 Z0.0F2000
G1 X7.000Y16.000F2000
G4 P2
G1G90 Z8.0F2000
G4 P1
G1G90 Z0.0F2000
G1 X8.000Y16.000F2000
G4 P2
G1G90 Z8.0F2000
G4 P1
G1G90 Z0.0F2000
G1 X9.000Y16.000F2000
G4 P2
G1G90 Z8.0F2000
G4 P1
G1G90 Z0.0F2000
G1 X10.000Y16.000F2000
G4 P2
G1G90 Z8.0F2000
G4 P1
G1G90 Z0.0F2000
G1 X11.000Y16.000F2000
G4 P2
G1G90 Z8.0F2000
G4 P1
G1G90 Z0.0F2000
G1 X12.000Y16.000F2000
G4 P2
G1G90 Z8.0F2000
G4 P1
G1G90 Z0.0F2000
G1 X13.000Y16.000F2000
G4 P2
G1G90 Z8.0F2000
G4 P1
G1G90 Z0.0F2000
G1 X14.000Y16.000F2000
G4 P2
G1G90 Z8.0F2000
G4 P1
G1G90 Z0.0F2000
G1 X15.000Y16.000F2000
G4 P2
G1G90 Z8.0F2000
G4 P1
G1G90 Z0.0F2000
G1 X16.000Y16.000F2000
G4 P2
G1G90 Z8.0F2000
G4 P1
G1G90 Z0.0F2000
G1 X17.000Y16.000F2000
G4 P2
G1G90 Z8.0F2000
G4 P1
G1G90 Z0.0F2000
G1 X18.000Y16.000F2000
G4 P2
G1G90 Z8.0F2000
G4 P1
G1G90 Z0.0F2000
G1 X19.000Y16.000F2000
G4 P2
G1G90 Z8.0F2000
G4 P1
G1G90 Z0.0F2000
G1 X20.000Y16.000F2000
G4 P2
G1G90 Z8.0F2000
G4 P1
G1G90 Z0.0F2000
G1 X0.000Y17.000F2000
G4 P2
G1G90 Z8.0F2000
G4 P1
G1G90 Z0.0F2000
G1 X1.000Y17.000F2000
G4 P2
G1G90 Z8.0F2000
G4 P1
G1G90 Z0.0F2000
G1 X2.000Y17.000F2000
G4 P2
G1G90 Z8.0F2000
G4 P1
G1G90 Z0.0F2000
G1 X3.000Y17.000F2000
G4 P2
G1G90 Z8.0F2000
G4 P1
G1G90 Z0.0F2000
G1 X4.000Y17.000F2000
G4 P2
G1G90 Z8.0F2000
G4 P1
G1G90 Z0.0F2000
G1 X5.000Y17.000F2000
G4 P2
G1G90 Z8.0F2000
G4 P1
G1G90 Z0.0F2000
G1 X6.000Y17.000F2000
G4 P2
G1G90 Z8.0F2000
G4 P1
G1G90 Z0.0F2000
G1 X7.000Y17.000F2000
G4 P2
G1G90 Z8.0F2000
G4 P1
G1G90 Z0.0F2000
G1 X8.000Y17.000F2000
G4 P2
G1G90 Z8.0F2000
G4 P1
G1G90 Z0.0F2000
G1 X9.000Y17.000F2000
G4 P2
G1G90 Z8.0F2000
G4 P1
G1G90 Z0.0F2000
G1 X10.000Y17.000F2000
G4 P2
G1G90 Z8.0F2000
G4 P1
G1G90 Z0.0F2000
G1 X11.000Y17.000F2000
G4 P2
G1G90 Z8.0F2000
G4 P1
G1G90 Z0.0F2000
G1 X12.000Y17.000F2000
G4 P2
G1G90 Z8.0F2000
G4 P1
G1G90 Z0.0F2000
G1 X13.000Y17.000F2000
G4 P2
G1G90 Z8.0F2000
G4 P1
G1G90 Z0.0F2000
G1 X14.000Y17.000F2000
G4 P2
G1G90 Z8.0F2000
G4 P1
G1G90 Z0.0F2000
G1 X15.000Y17.000F2000
G4 P2
G1G90 Z8.0F2000
G4 P1
G1G90 Z0.0F2000
G1 X16.000Y17.000F2000
G4 P2
G1G90 Z8.0F2000
G4 P1
G1G90 Z0.0F2000
G1 X17.000Y17.000F2000
G4 P2
G1G90 Z8.0F2000
G4 P1
G1G90 Z0.0F2000
G1 X18.000Y17.000F2000
G4 P2
G1G90 Z8.0F2000
G4 P1
G1G90 Z0.0F2000
G1 X19.000Y17.000F2000
G4 P2
G1G90 Z8.0F2000
G4 P1
G1G90 Z0.0F2000
G1 X20.000Y17.000F2000
G4 P2
G1G90 Z8.0F2000
G4 P1
G1G90 Z0.0F2000
G1 X0.000Y18.000F2000
G4 P2
G1G90 Z8.0F2000
G4 P1
G1G90 Z0.0F2000
G1 X1.000Y18.000F2000
G4 P2
G1G90 Z8.0F2000
G4 P1
G1G90 Z0.0F2000
G1 X2.000Y18.000F2000
G4 P2
G1G90 Z8.0F2000
G4 P1
G1G90 Z0.0F2000
G1 X3.000Y18.000F2000
G4 P2
G1G90 Z8.0F2000
G4 P1
G1G90 Z0.0F2000
G1 X4.000Y18.000F2000
G4 P2
G1G90 Z8.0F2000
G4 P1
G1G90 Z0.0F2000
G1 X5.000Y18.000F2000
G4 P2
G1G90 Z8.0F2000
G4 P1
G1G90 Z0.0F2000
G1 X6.000Y18.000F2000
G4 P2
G1G90 Z8.0F2000
G4 P1
G1G90 Z0.0F2000
G1 X7.000Y18.000F2000
G4 P2
G1G90 Z8.0F2000
G4 P1
G1G90 Z0.0F2000
G1 X8.000Y18.000F2000
G4 P2
G1G90 Z8.0F2000
G4 P1
G1G90 Z0.0F2000
G1 X9.000Y18.000F2000
G4 P2
G1G90 Z8.0F2000
G4 P1
G1G90 Z0.0F2000
G1 X10.000Y18.000F2000
G4 P2
G1G90 Z8.0F2000
G4 P1
G1G90 Z0.0F2000
G1 X11.000Y18.000F2000
G4 P2
G1G90 Z8.0F2000
G4 P1
G1G90 Z0.0F2000
G1 X12.000Y18.000F2000
G4 P2
G1G90 Z8.0F2000
G4 P1
G1G90 Z0.0F2000
G1 X13.000Y18.000F2000
G4 P2
G1G90 Z8.0F2000
G4 P1
G1G90 Z0.0F2000
G1 X14.000Y18.000F2000
G4 P2
G1G90 Z8.0F2000
G4 P1
G1G90 Z0.0F2000
G1 X15.000Y18.000F2000
G4 P2
G1G90 Z8.0F2000
G4 P1
G1G90 Z0.0F2000
G1 X16.000Y18.000F2000
G4 P2
G1G90 Z8.0F2000
G4 P1
G1G90 Z0.0F2000
G1 X17.000Y18.000F2000
G4 P2
G1G90 Z8.0F2000
G4 P1
G1G90 Z0.0F2000
G1 X18.000Y18.000F2000
G4 P2
G1G90 Z8.0F2000
G4 P1
G1G90 Z0.0F2000
G1 X19.000Y18.000F2000
G4 P2
G1G90 Z8.0F2000
G4 P1
G1G90 Z0.0F2000
G1 X20.000Y18.000F2000
G4 P2
G1G90 Z8.0F2000
G4 P1
G1G90 Z0.0F2000
G1 X0.000Y19.000F2000
G4 P2
G1G90 Z8.0F2000
G4 P1
G1G90 Z0.0F2000
G1 X1.000Y19.000F2000
G4 P2
G1G90 Z8.0F2000
G4 P1
G1G90 Z0.0F2000
G1 X2.000Y19.000F2000
G4 P2
G1G90 Z8.0F2000
G4 P1
G1G90 Z0.0F2000
G1 X3.000Y19.000F2000
G4 P2
G1G90 Z8.0F2000
G4 P1
G1G90 Z0.0F2000
G1 X4.000Y19.000F2000
G4 P2
G1G90 Z8.0F2000
G4 P1
G1G90 Z0.0F2000
G1 X5.000Y19.000F2000
G4 P2
G1G90 Z8.0F2000
G4 P1
G1G90 Z0.0F2000
G1 X6.000Y19.000F2000
G4 P2
G1G90 Z8.0F2000
G4 P1
G1G90 Z0.0F2000
G1 X7.000Y19.000F2000
G4 P2
G1G90 Z8.0F2000
G4 P1
G1G90 Z0.0F2000
G1 X8.000Y19.000F2000
G4 P2
G1G90 Z8.0F2000
G4 P1
G1G90 Z0.0F2000
G1 X9.000Y19.000F2000
G4 P2
G1G90 Z8.0F2000
G4 P1
G1G90 Z0.0F2000
G1 X10.000Y19.000F2000
G4 P2
G1G90 Z8.0F2000
G4 P1
G1G90 Z0.0F2000
G1 X11.000Y19.000F2000
G4 P2
G1G90 Z8.0F2000
G4 P1
G1G90 Z0.0F2000
G1 X12.000Y19.000F2000
G4 P2
G1G90 Z8.0F2000
G4 P1
G1G90 Z0.0F2000
G1 X13.000Y19.000F2000
G4 P2
G1G90 Z8.0F2000
G4 P1
G1G90 Z0.0F2000
G1 X14.000Y19.000F2000
G4 P2
G1G90 Z8.0F2000
G4 P1
G1G90 Z0.0F2000
G1 X15.000Y19.000F2000
G4 P2
G1G90 Z8.0F2000
G4 P1
G1G90 Z0.0F2000
G1 X16.000Y19.000F2000
G4 P2
G1G90 Z8.0F2000
G4 P1
G1G90 Z0.0F2000
G1 X17.000Y19.000F2000
G4 P2
G1G90 Z8.0F2000
G4 P1
G1G90 Z0.0F2000
G1 X18.000Y19.000F2000
G4 P2
G1G90 Z8.0F2000
G4 P1
G1G90 Z0.0F2000
G1 X19.000Y19.000F2000
G4 P2
G1G90 Z8.0F2000
G4 P1
G1G90 Z0.0F2000
G1 X20.000Y19.000F2000
G4 P2
G1G90 Z8.0F2000
G4 P1
G1G90 Z0.0F2000
G1 X0.000Y20.000F2000
G4 P2
G1G90 Z8.0F2000
G4 P1
G1G90 Z0.0F2000
G1 X1.000Y20.000F2000
G4 P2
G1G90 Z8.0F2000
G4 P1
G1G90 Z0.0F2000
G1 X2.000Y20.000F2000
G4 P2
G1G90 Z8.0F2000
G4 P1
G1G90 Z0.0F2000
G1 X3.000Y20.000F2000
G4 P2
G1G90 Z8.0F2000
G4 P1
G1G90 Z0.0F2000
G1 X4.000Y20.000F2000
G4 P2
G1G90 Z8.0F2000
G4 P1
G1G90 Z0.0F2000
G1 X5.000Y20.000F2000
G4 P2
G1G90 Z8.0F2000
G4 P1
G1G90 Z0.0F2000
G1 X6.000Y20.000F2000
G4 P2
G1G90 Z8.0F2000
G4 P1
G1G90 Z0.0F2000
G1 X7.000Y20.000F2000
G4 P2
G1G90 Z8.0F2000
G4 P1
G1G90 Z0.0F2000
G1 X8.000Y20.000F2000
G4 P2
G1G90 Z8.0F2000
G4 P1
G1G90 Z0.0F2000
G1 X9.000Y20.000F2000
G4 P2
G1G90 Z8.0F2000
G4 P1
G1G90 Z0.0F2000
G1 X10.000Y20.000F2000
G4 P2
G1G90 Z8.0F2000
G4 P1
G1G90 Z0.0F2000
G1 X11.000Y20.000F2000
G4 P2
G1G90 Z8.0F2000
G4 P1
G1G90 Z0.0F2000
G1 X12.000Y20.000F2000
G4 P2
G1G90 Z8.0F2000
G4 P1
G1G90 Z0.0F2000
G1 X13.000Y20.000F2000
G4 P2
G1G90 Z8.0F2000
G4 P1
G1G90 Z0.0F2000
G1 X14.000Y20.000F2000
G4 P2
G1G90 Z8.0F2000
G4 P1
G1G90 Z0.0F2000
G1 X15.000Y20.000F2000
G4 P2
G1G90 Z8.0F2000
G4 P1
G1G90 Z0.0F2000
G1 X16.000Y20.000F2000
G4 P2
G1G90 Z8.0F2000
G4 P1
G1G90 Z0.0F2000
G1 X17.000Y20.000F2000
G4 P2
G1G90 Z8.0F2000
G4 P1
G1G90 Z0.0F2000
G1 X18.000Y20.000F2000
G4 P2
G1G90 Z8.0F2000
G4 P1
G1G90 Z0.0F2000
G1 X19.000Y20.000F2000
G4 P2
G1G90 Z8.0F2000
G4 P1
G1G90 Z0.0F2000
G1 X20.000Y20.000F2000
G4 P2
G1G90 Z8.0F2000
G4 P1
G1G90 Z0.0F2000
G1 X0.000Y21.000F2000
G4 P2
G1G90 Z8.0F2000
G4 P1
G1G90 Z0.0F2000
G1 X1.000Y21.000F2000
G4 P2
G1G90 Z8.0F2000
G4 P1
G1G90 Z0.0F2000
G1 X2.000Y21.000F2000
G4 P2
G1G90 Z8.0F2000
G4 P1
G1G90 Z0.0F2000
G1 X3.000Y21.000F2000
G4 P2
G1G90 Z8.0F2000
G4 P1
G1G90 Z0.0F2000
G1 X4.000Y21.000F2000
G4 P2
G1G90 Z8.0F2000
G4 P1
G1G90 Z0.0F2000
G1 X5.000Y21.000F2000
G4 P2
G1G90 Z8.0F2000
G4 P1
G1G90 Z0.0F2000
G1 X6.000Y21.000F2000
G4 P2
G1G90 Z8.0F2000
G4 P1
G1G90 Z0.0F2000
G1 X7.000Y21.000F2000
G4 P2
G1G90 Z8.0F2000
G4 P1
G1G90 Z0.0F2000
G1 X8.000Y21.000F2000
G4 P2
G1G90 Z8.0F2000
G4 P1
G1G90 Z0.0F2000
G1 X9.000Y21.000F2000
G4 P2
G1G90 Z8.0F2000
G4 P1
G1G90 Z0.0F2000
G1 X10.000Y21.000F2000
G4 P2
G1G90 Z8.0F2000
G4 P1
G1G90 Z0.0F2000
G1 X11.000Y21.000F2000
G4 P2
G1G90 Z8.0F2000
G4 P1
G1G90 Z0.0F2000
G1 X12.000Y21.000F2000
G4 P2
G1G90 Z8.0F2000
G4 P1
G1G90 Z0.0F2000
G1 X13.000Y21.000F2000
G4 P2
G1G90 Z8.0F2000
G4 P1
G1G90 Z0.0F2000
G1 X14.000Y21.000F2000
G4 P2
G1G90 Z8.0F2000
G4 P1
G1G90 Z0.0F2000
G1 X15.000Y21.000F2000
G4 P2
G1G90 Z8.0F2000
G4 P1
G1G90 Z0.0F2000
G1 X16.000Y21.000F2000
G4 P2
G1G90 Z8.0F2000
G4 P1
G1G90 Z0.0F2000
G1 X17.000Y21.000F2000
G4 P2
G1G90 Z8.0F2000
G4 P1
G1G90 Z0.0F2000
G1 X18.000Y21.000F2000
G4 P2
G1G90 Z8.0F2000
G4 P1
G1G90 Z0.0F2000
G1 X19.000Y21.000F2000
G4 P2
G1G90 Z8.0F2000
G4 P1
G1G90 Z0.0F2000
G1 X20.000Y21.000F2000
G4 P2
G1G90 Z8.0F2000
G4 P1
G1G90 Z0.0F2000
G1 X0.000Y22.000F2000
G4 P2
G1G90 Z8.0F2000
G4 P1
G1G90 Z0.0F2000
G1 X1.000Y22.000F2000
G4 P2
G1G90 Z8.0F2000
G4 P1
G1G90 Z0.0F2000
G1 X2.000Y22.000F2000
G4 P2
G1G90 Z8.0F2000
G4 P1
G1G90 Z0.0F2000
G1 X3.000Y22.000F2000
G4 P2
G1G90 Z8.0F2000
G4 P1
G1G90 Z0.0F2000
G1 X4.000Y22.000F2000
G4 P2
G1G90 Z8.0F2000
G4 P1
G1G90 Z0.0F2000
G1 X5.000Y22.000F2000
G4 P2
G1G90 Z8.0F2000
G4 P1
G1G90 Z0.0F2000
G1 X6.000Y22.000F2000
G4 P2
G1G90 Z8.0F2000
G4 P1
G1G90 Z0.0F2000
G1 X7.000Y22.000F2000
G4 P2
G1G90 Z8.0F2000
G4 P1
G1G90 Z0.0F2000
G1 X8.000Y22.000F2000
G4 P2
G1G90 Z8.0F2000
G4 P1
G1G90 Z0.0F2000
G1 X9.000Y22.000F2000
G4 P2
G1G90 Z8.0F2000
G4 P1
G1G90 Z0.0F2000
G1 X10.000Y22.000F2000
G4 P2
G1G90 Z8.0F2000
G4 P1
G1G90 Z0.0F2000
G1 X11.000Y22.000F2000
G4 P2
G1G90 Z8.0F2000
G4 P1
G1G90 Z0.0F2000
G1 X12.000Y22.000F2000
G4 P2
G1G90 Z8.0F2000
G4 P1
G1G90 Z0.0F2000
G1 X13.000Y22.000F2000
G4 P2
G1G90 Z8.0F2000
G4 P1
G1G90 Z0.0F2000
G1 X14.000Y22.000F2000
G4 P2
G1G90 Z8.0F2000
G4 P1
G1G90 Z0.0F2000
G1 X15.000Y22.000F2000
G4 P2
G1G90 Z8.0F2000
G4 P1
G1G90 Z0.0F2000
G1 X16.000Y22.000F2000
G4 P2
G1G90 Z8.0F2000
G4 P1
G1G90 Z0.0F2000
G1 X17.000Y22.000F2000
G4 P2
G1G90 Z8.0F2000
G4 P1
G1G90 Z0.0F2000
G1 X18.000Y22.000F2000
G4 P2
G1G90 Z8.0F2000
G4 P1
G1G90 Z0.0F2000
G1 X19.000Y22.000F2000
G4 P2
G1G90 Z8.0F2000
G4 P1
G1G90 Z0.0F2000
G1 X20.000Y22.000F2000
G4 P2
G1G90 Z8.0F2000
G4 P1
G1G90 Z0.0F2000
G1 X0.000Y23.000F2000
G4 P2
G1G90 Z8.0F2000
G4 P1
G1G90 Z0.0F2000
G1 X1.000Y23.000F2000
G4 P2
G1G90 Z8.0F2000
G4 P1
G1G90 Z0.0F2000
G1 X2.000Y23.000F2000
G4 P2
G1G90 Z8.0F2000
G4 P1
G1G90 Z0.0F2000
G1 X3.000Y23.000F2000
G4 P2
G1G90 Z8.0F2000
G4 P1
G1G90 Z0.0F2000
G1 X4.000Y23.000F2000
G4 P2
G1G90 Z8.0F2000
G4 P1
G1G90 Z0.0F2000
G1 X5.000Y23.000F2000
G4 P2
G1G90 Z8.0F2000
G4 P1
G1G90 Z0.0F2000
G1 X6.000Y23.000F2000
G4 P2
G1G90 Z8.0F2000
G4 P1
G1G90 Z0.0F2000
G1 X7.000Y23.000F2000
G4 P2
G1G90 Z8.0F2000
G4 P1
G1G90 Z0.0F2000
G1 X8.000Y23.000F2000
G4 P2
G1G90 Z8.0F2000
G4 P1
G1G90 Z0.0F2000
G1 X9.000Y23.000F2000
G4 P2
G1G90 Z8.0F2000
G4 P1
G1G90 Z0.0F2000
G1 X10.000Y23.000F2000
G4 P2
G1G90 Z8.0F2000
G4 P1
G1G90 Z0.0F2000
G1 X11.000Y23.000F2000
G4 P2
G1G90 Z8.0F2000
G4 P1
G1G90 Z0.0F2000
G1 X12.000Y23.000F2000
G4 P2
G1G90 Z8.0F2000
G4 P1
G1G90 Z0.0F2000
G1 X13.000Y23.000F2000
G4 P2
G1G90 Z8.0F2000
G4 P1
G1G90 Z0.0F2000
G1 X14.000Y23.000F2000
G4 P2
G1G90 Z8.0F2000
G4 P1
G1G90 Z0.0F2000
G1 X15.000Y23.000F2000
G4 P2
G1G90 Z8.0F2000
G4 P1
G1G90 Z0.0F2000
G1 X16.000Y23.000F2000
G4 P2
G1G90 Z8.0F2000
G4 P1
G1G90 Z0.0F2000
G1 X17.000Y23.000F2000
G4 P2
G1G90 Z8.0F2000
G4 P1
G1G90 Z0.0F2000
G1 X18.000Y23.000F2000
G4 P2
G1G90 Z8.0F2000
G4 P1
G1G90 Z0.0F2000
G1 X19.000Y23.000F2000
G4 P2
G1G90 Z8.0F2000
G4 P1
G1G90 Z0.0F2000
G1 X20.000Y23.000F2000
G4 P2
G1G90 Z8.0F2000
G4 P1
G1G90 Z0.0F2000
G1 X0.000Y24.000F2000
G4 P2
G1G90 Z8.0F2000
G4 P1
G1G90 Z0.0F2000
G1 X1.000Y24.000F2000
G4 P2
G1G90 Z8.0F2000
G4 P1
G1G90 Z0.0F2000
G1 X2.000Y24.000F2000
G4 P2
G1G90 Z8.0F2000
G4 P1
G1G90 Z0.0F2000
G1 X3.000Y24.000F2000
G4 P2
G1G90 Z8.0F2000
G4 P1
G1G90 Z0.0F2000
G1 X4.000Y24.000F2000
G4 P2
G1G90 Z8.0F2000
G4 P1
G1G90 Z0.0F2000
G1 X5.000Y24.000F2000
G4 P2
G1G90 Z8.0F2000
G4 P1
G1G90 Z0.0F2000
G1 X6.000Y24.000F2000
G4 P2
G1G90 Z8.0F2000
G4 P1
G1G90 Z0.0F2000
G1 X7.000Y24.000F2000
G4 P2
G1G90 Z8.0F2000
G4 P1
G1G90 Z0.0F2000
G1 X8.000Y24.000F2000
G4 P2
G1G90 Z8.0F2000
G4 P1
G1G90 Z0.0F2000
G1 X9.000Y24.000F2000
G4 P2
G1G90 Z8.0F2000
G4 P1
G1G90 Z0.0F2000
G1 X10.000Y24.000F2000
G4 P2
G1G90 Z8.0F2000
G4 P1
G1G90 Z0.0F2000
G1 X11.000Y24.000F2000
G4 P2
G1G90 Z8.0F2000
G4 P1
G1G90 Z0.0F2000
G1 X12.000Y24.000F2000
G4 P2
G1G90 Z8.0F2000
G4 P1
G1G90 Z0.0F2000
G1 X13.000Y24.000F2000
G4 P2
G1G90 Z8.0F2000
G4 P1
G1G90 Z0.0F2000
G1 X14.000Y24.000F2000
G4 P2
G1G90 Z8.0F2000
G4 P1
G1G90 Z0.0F2000
G1 X15.000Y24.000F2000
G4 P2
G1G90 Z8.0F2000
G4 P1
G1G90 Z0.0F2000
G1 X16.000Y24.000F2000
G4 P2
G1G90 Z8.0F2000
G4 P1
G1G90 Z0.0F2000
G1 X17.000Y24.000F2000
G4 P2
G1G90 Z8.0F2000
G4 P1
G1G90 Z0.0F2000
G1 X18.000Y24.000F2000
G4 P2
G1G90 Z8.0F2000
G4 P1
G1G90 Z0.0F2000
G1 X19.000Y24.000F2000
G4 P2
G1G90 Z8.0F2000
G4 P1
G1G90 Z0.0F2000
G1 X20.000Y24.000F2000
G4 P2
G1G90 Z8.0F2000
G4 P1
G1G90 Z0.0F2000
G1 X0.000Y25.000F2000
G4 P2
G1G90 Z8.0F2000
G4 P1
G1G90 Z0.0F2000
G1 X1.000Y25.000F2000
G4 P2
G1G90 Z8.0F2000
G4 P1
G1G90 Z0.0F2000
G1 X2.000Y25.000F2000
G4 P2
G1G90 Z8.0F2000
G4 P1
G1G90 Z0.0F2000
G1 X3.000Y25.000F2000
G4 P2
G1G90 Z8.0F2000
G4 P1
G1G90 Z0.0F2000
G1 X4.000Y25.000F2000
G4 P2
G1G90 Z8.0F2000
G4 P1
G1G90 Z0.0F2000
G1 X5.000Y25.000F2000
G4 P2
G1G90 Z8.0F2000
G4 P1
G1G90 Z0.0F2000
G1 X6.000Y25.000F2000
G4 P2
G1G90 Z8.0F2000
G4 P1
G1G90 Z0.0F2000
G1 X7.000Y25.000F2000
G4 P2
G1G90 Z8.0F2000
G4 P1
G1G90 Z0.0F2000
G1 X8.000Y25.000F2000
G4 P2
G1G90 Z8.0F2000
G4 P1
G1G90 Z0.0F2000
G1 X9.000Y25.000F2000
G4 P2
G1G90 Z8.0F2000
G4 P1
G1G90 Z0.0F2000
G1 X10.000Y25.000F2000
G4 P2
G1G90 Z8.0F2000
G4 P1
G1G90 Z0.0F2000
G1 X11.000Y25.000F2000
G4 P2
G1G90 Z8.0F2000
G4 P1
G1G90 Z0.0F2000
G1 X12.000Y25.000F2000
G4 P2
G1G90 Z8.0F2000
G4 P1
G1G90 Z0.0F2000
G1 X13.000Y25.000F2000
G4 P2
G1G90 Z8.0F2000
G4 P1
G1G90 Z0.0F2000
G1 X14.000Y25.000F2000
G4 P2
G1G90 Z8.0F2000
G4 P1
G1G90 Z0.0F2000
G1 X15.000Y25.000F2000
G4 P2
G1G90 Z8.0F2000
G4 P1
G1G90 Z0.0F2000
G1 X16.000Y25.000F2000
G4 P2
G1G90 Z8.0F2000
G4 P1
G1G90 Z0.0F2000
G1 X17.000Y25.000F2000
G4 P2
G1G90 Z8.0F2000
G4 P1
G1G90 Z0.0F2000
G1 X18.000Y25.000F2000
G4 P2
G1G90 Z8.0F2000
G4 P1
G1G90 Z0.0F2000
G1 X19.000Y25.000F2000
G4 P2
G1G90 Z8.0F2000
G4 P1
G1G90 Z0.0F2000
G1 X20.000Y25.000F2000
G4 P2
G1G90 Z8.0F2000
G4 P1
G1G90 Z0.0F2000
G1 X0.000Y26.000F2000
G4 P2
G1G90 Z8.0F2000
G4 P1
G1G90 Z0.0F2000
G1 X1.000Y26.000F2000
G4 P2
G1G90 Z8.0F2000
G4 P1
G1G90 Z0.0F2000
G1 X2.000Y26.000F2000
G4 P2
G1G90 Z8.0F2000
G4 P1
G1G90 Z0.0F2000
G1 X3.000Y26.000F2000
G4 P2
G1G90 Z8.0F2000
G4 P1
G1G90 Z0.0F2000
G1 X4.000Y26.000F2000
G4 P2
G1G90 Z8.0F2000
G4 P1
G1G90 Z0.0F2000
G1 X5.000Y26.000F2000
G4 P2
G1G90 Z8.0F2000
G4 P1
G1G90 Z0.0F2000
G1 X6.000Y26.000F2000
G4 P2
G1G90 Z8.0F2000
G4 P1
G1G90 Z0.0F2000
G1 X7.000Y26.000F2000
G4 P2
G1G90 Z8.0F2000
G4 P1
G1G90 Z0.0F2000
G1 X8.000Y26.000F2000
G4 P2
G1G90 Z8.0F2000
G4 P1
G1G90 Z0.0F2000
G1 X9.000Y26.000F2000
G4 P2
G1G90 Z8.0F2000
G4 P1
G1G90 Z0.0F2000
G1 X10.000Y26.000F2000
G4 P2
G1G90 Z8.0F2000
G4 P1
G1G90 Z0.0F2000
G1 X11.000Y26.000F2000
G4 P2
G1G90 Z8.0F2000
G4 P1
G1G90 Z0.0F2000
G1 X12.000Y26.000F2000
G4 P2
G1G90 Z8.0F2000
G4 P1
G1G90 Z0.0F2000
G1 X13.000Y26.000F2000
G4 P2
G1G90 Z8.0F2000
G4 P1
G1G90 Z0.0F2000
G1 X14.000Y26.000F2000
G4 P2
G1G90 Z8.0F2000
G4 P1
G1G90 Z0.0F2000
G1 X15.000Y26.000F2000
G4 P2
G1G90 Z8.0F2000
G4 P1
G1G90 Z0.0F2000
G1 X16.000Y26.000F2000
G4 P2
G1G90 Z8.0F2000
G4 P1
G1G90 Z0.0F2000
G1 X17.000Y26.000F2000
G4 P2
G1G90 Z8.0F2000
G4 P1
G1G90 Z0.0F2000
G1 X18.000Y26.000F2000
G4 P2
G1G90 Z8.0F2000
G4 P1
G1G90 Z0.0F2000
G1 X19.000Y26.000F2000
G4 P2
G1G90 Z8.0F2000
G4 P1
G1G90 Z0.0F2000
G1 X20.000Y26.000F2000
G4 P2
G1G90 Z8.0F2000
G4 P1
G1G90 Z0.0F2000
G1 X0.000Y27.000F2000
G4 P2
G1G90 Z8.0F2000
G4 P1
G1G90 Z0.0F2000
G1 X1.000Y27.000F2000
G4 P2
G1G90 Z8.0F2000
G4 P1
G1G90 Z0.0F2000
G1 X2.000Y27.000F2000
G4 P2
G1G90 Z8.0F2000
G4 P1
G1G90 Z0.0F2000
G1 X3.000Y27.000F2000
G4 P2
G1G90 Z8.0F2000
G4 P1
G1G90 Z0.0F2000
G1 X4.000Y27.000F2000
G4 P2
G1G90 Z8.0F2000
G4 P1
G1G90 Z0.0F2000
G1 X5.000Y27.000F2000
G4 P2
G1G90 Z8.0F2000
G4 P1
G1G90 Z0.0F2000
G1 X6.000Y27.000F2000
G4 P2
G1G90 Z8.0F2000
G4 P1
G1G90 Z0.0F2000
G1 X7.000Y27.000F2000
G4 P2
G1G90 Z8.0F2000
G4 P1
G1G90 Z0.0F2000
G1 X8.000Y27.000F2000
G4 P2
G1G90 Z8.0F2000
G4 P1
G1G90 Z0.0F2000
G1 X9.000Y27.000F2000
G4 P2
G1G90 Z8.0F2000
G4 P1
G1G90 Z0.0F2000
G1 X10.000Y27.000F2000
G4 P2
G1G90 Z8.0F2000
G4 P1
G1G90 Z0.0F2000
G1 X11.000Y27.000F2000
G4 P2
G1G90 Z8.0F2000
G4 P1
G1G90 Z0.0F2000
G1 X12.000Y27.000F2000
G4 P2
G1G90 Z8.0F2000
G4 P1
G1G90 Z0.0F2000
G1 X13.000Y27.000F2000
G4 P2
G1G90 Z8.0F2000
G4 P1
G1G90 Z0.0F2000
G1 X14.000Y27.000F2000
G4 P2
G1G90 Z8.0F2000
G4 P1
G1G90 Z0.0F2000
G1 X15.000Y27.000F2000
G4 P2
G1G90 Z8.0F2000
G4 P1
G1G90 Z0.0F2000
G1 X16.000Y27.000F2000
G4 P2
G1G90 Z8.0F2000
G4 P1
G1G90 Z0.0F2000
G1 X17.000Y27.000F2000
G4 P2
G1G90 Z8.0F2000
G4 P1
G1G90 Z0.0F2000
G1 X18.000Y27.000F2000
G4 P2
G1G90 Z8.0F2000
G4 P1
G1G90 Z0.0F2000
G1 X19.000Y27.000F2000
G4 P2
G1G90 Z8.0F2000
G4 P1
G1G90 Z0.0F2000
G1 X20.000Y27.000F2000
G4 P2
G1G90 Z8.0F2000
G4 P1
G1G90 Z0.0F2000
G1 X0.000Y28.000F2000
G4 P2
G1G90 Z8.0F2000
G4 P1
G1G90 Z0.0F2000
G1 X1.000Y28.000F2000
G4 P2
G1G90 Z8.0F2000
G4 P1
G1G90 Z0.0F2000
G1 X2.000Y28.000F2000
G4 P2
G1G90 Z8.0F2000
G4 P1
G1G90 Z0.0F2000
G1 X3.000Y28.000F2000
G4 P2
G1G90 Z8.0F2000
G4 P1
G1G90 Z0.0F2000
G1 X4.000Y28.000F2000
G4 P2
G1G90 Z8.0F2000
G4 P1
G1G90 Z0.0F2000
G1 X5.000Y28.000F2000
G4 P2
G1G90 Z8.0F2000
G4 P1
G1G90 Z0.0F2000
G1 X6.000Y28.000F2000
G4 P2
G1G90 Z8.0F2000
G4 P1
G1G90 Z0.0F2000
G1 X7.000Y28.000F2000
G4 P2
G1G90 Z8.0F2000
G4 P1
G1G90 Z0.0F2000
G1 X8.000Y28.000F2000
G4 P2
G1G90 Z8.0F2000
G4 P1
G1G90 Z0.0F2000
G1 X9.000Y28.000F2000
G4 P2
G1G90 Z8.0F2000
G4 P1
G1G90 Z0.0F2000
G1 X10.000Y28.000F2000
G4 P2
G1G90 Z8.0F2000
G4 P1
G1G90 Z0.0F2000
G1 X11.000Y28.000F2000
G4 P2
G1G90 Z8.0F2000
G4 P1
G1G90 Z0.0F2000
G1 X12.000Y28.000F2000
G4 P2
G1G90 Z8.0F2000
G4 P1
G1G90 Z0.0F2000
G1 X13.000Y28.000F2000
G4 P2
G1G90 Z8.0F2000
G4 P1
G1G90 Z0.0F2000
G1 X14.000Y28.000F2000
G4 P2
G1G90 Z8.0F2000
G4 P1
G1G90 Z0.0F2000
G1 X15.000Y28.000F2000
G4 P2
G1G90 Z8.0F2000
G4 P1
G1G90 Z0.0F2000
G1 X16.000Y28.000F2000
G4 P2
G1G90 Z8.0F2000
G4 P1
G1G90 Z0.0F2000
G1 X17.000Y28.000F2000
G4 P2
G1G90 Z8.0F2000
G4 P1
G1G90 Z0.0F2000
G1 X18.000Y28.000F2000
G4 P2
G1G90 Z8.0F2000
G4 P1
G1G90 Z0.0F2000
G1 X19.000Y28.000F2000
G4 P2
G1G90 Z8.0F2000
G4 P1
G1G90 Z0.0F2000
G1 X20.000Y28.000F2000
G4 P2
G1G90 Z8.0F2000
G4 P1
G1G90 Z0.0F2000
G1 X0.000Y29.000F2000
G4 P2
G1G90 Z8.0F2000
G4 P1
G1G90 Z0.0F2000
G1 X1.000Y29.000F2000
G4 P2
G1G90 Z8.0F2000
G4 P1
G1G90 Z0.0F2000
G1 X2.000Y29.000F2000
G4 P2
G1G90 Z8.0F2000
G4 P1
G1G90 Z0.0F2000
G1 X3.000Y29.000F2000
G4 P2
G1G90 Z8.0F2000
G4 P1
G1G90 Z0.0F2000
G1 X4.000Y29.000F2000
G4 P2
G1G90 Z8.0F2000
G4 P1
G1G90 Z0.0F2000
G1 X5.000Y29.000F2000
G4 P2
G1G90 Z8.0F2000
G4 P1
G1G90 Z0.0F2000
G1 X6.000Y29.000F2000
G4 P2
G1G90 Z8.0F2000
G4 P1
G1G90 Z0.0F2000
G1 X7.000Y29.000F2000
G4 P2
G1G90 Z8.0F2000
G4 P1
G1G90 Z0.0F2000
G1 X8.000Y29.000F2000
G4 P2
G1G90 Z8.0F2000
G4 P1
G1G90 Z0.0F2000
G1 X9.000Y29.000F2000
G4 P2
G1G90 Z8.0F2000
G4 P1
G1G90 Z0.0F2000
G1 X10.000Y29.000F2000
G4 P2
G1G90 Z8.0F2000
G4 P1
G1G90 Z0.0F2000
G1 X11.000Y29.000F2000
G4 P2
G1G90 Z8.0F2000
G4 P1
G1G90 Z0.0F2000
G1 X12.000Y29.000F2000
G4 P2
G1G90 Z8.0F2000
G4 P1
G1G90 Z0.0F2000
G1 X13.000Y29.000F2000
G4 P2
G1G90 Z8.0F2000
G4 P1
G1G90 Z0.0F2000
G1 X14.000Y29.000F2000
G4 P2
G1G90 Z8.0F2000
G4 P1
G1G90 Z0.0F2000
G1 X15.000Y29.000F2000
G4 P2
G1G90 Z8.0F2000
G4 P1
G1G90 Z0.0F2000
G1 X16.000Y29.000F2000
G4 P2
G1G90 Z8.0F2000
G4 P1
G1G90 Z0.0F2000
G1 X17.000Y29.000F2000
G4 P2
G1G90 Z8.0F2000
G4 P1
G1G90 Z0.0F2000
G1 X18.000Y29.000F2000
G4 P2
G1G90 Z8.0F2000
G4 P1
G1G90 Z0.0F2000
G1 X19.000Y29.000F2000
G4 P2
G1G90 Z8.0F2000
G4 P1
G1G90 Z0.0F2000
G1 X20.000Y29.000F2000
G4 P2
G1G90 Z8.0F2000
G4 P1
G1G90 Z0.0F2000
G1 X0.000Y30.000F2000
G4 P2
G1G90 Z8.0F2000
G4 P1
G1G90 Z0.0F2000
G1 X1.000Y30.000F2000
G4 P2
G1G90 Z8.0F2000
G4 P1
G1G90 Z0.0F2000
G1 X2.000Y30.000F2000
G4 P2
G1G90 Z8.0F2000
G4 P1
G1G90 Z0.0F2000
G1 X3.000Y30.000F2000
G4 P2
G1G90 Z8.0F2000
G4 P1
G1G90 Z0.0F2000
G1 X4.000Y30.000F2000
G4 P2
G1G90 Z8.0F2000
G4 P1
G1G90 Z0.0F2000
G1 X5.000Y30.000F2000
G4 P2
G1G90 Z8.0F2000
G4 P1
G1G90 Z0.0F2000
G1 X6.000Y30.000F2000
G4 P2
G1G90 Z8.0F2000
G4 P1
G1G90 Z0.0F2000
G1 X7.000Y30.000F2000
G4 P2
G1G90 Z8.0F2000
G4 P1
G1G90 Z0.0F2000
G1 X8.000Y30.000F2000
G4 P2
G1G90 Z8.0F2000
G4 P1
G1G90 Z0.0F2000
G1 X9.000Y30.000F2000
G4 P2
G1G90 Z8.0F2000
G4 P1
G1G90 Z0.0F2000
G1 X10.000Y30.000F2000
G4 P2
G1G90 Z8.0F2000
G4 P1
G1G90 Z0.0F2000
G1 X11.000Y30.000F2000
G4 P2
G1G90 Z8.0F2000
G4 P1
G1G90 Z0.0F2000
G1 X12.000Y30.000F2000
G4 P2
G1G90 Z8.0F2000
G4 P1
G1G90 Z0.0F2000
G1 X13.000Y30.000F2000
G4 P2
G1G90 Z8.0F2000
G4 P1
G1G90 Z0.0F2000
G1 X14.000Y30.000F2000
G4 P2
G1G90 Z8.0F2000
G4 P1
G1G90 Z0.0F2000
G1 X15.000Y30.000F2000
G4 P2
G1G90 Z8.0F2000
G4 P1
G1G90 Z0.0F2000
G1 X16.000Y30.000F2000
G4 P2
G1G90 Z8.0F2000
G4 P1
G1G90 Z0.0F2000
G1 X17.000Y30.000F2000
G4 P2
G1G90 Z8.0F2000
G4 P1
G1G90 Z0.0F2000
G1 X18.000Y30.000F2000
G4 P2
G1G90 Z8.0F2000
G4 P1
G1G90 Z0.0F2000
G1 X19.000Y30.000F2000
G4 P2
G1G90 Z8.0F2000
G4 P1
G1G90 Z0.0F2000
G1 X20.000Y30.000F2000
G4 P2
G1G90 Z8.0F2000
G4 P1
G1G90 Z0.0F2000
G1G90 Z0.0F2000
G1 X0.000Y0.000F2000
